ONEWEB-0564             
1 55801U 23029F   26194.80177595 -.00000026  00000+0 -96341-4 0  9995
2 55801  87.9178 269.1483 0001783  90.4946 269.6392 13.20772104164662
ONEWEB-0638             
1 55802U 23029G   26194.80594183 -.00000123  00000+0 -36528-3 0  9990
2 55802  87.8952 284.4472 0001379 101.4118 258.7167 13.14504330162894
ONEWEB-0639             
1 55803U 23029H   26194.79522991  .00000042  00000+0  73420-4 0  9998
2 55803  87.9184 299.6775 0002581 121.3508 238.7877 13.19726078162411
ONEWEB-0640             
1 55804U 23029J   26194.73933759 -.00000186  00000+0 -53617-3 0  9997
2 55804  87.8959 284.4501 0001479 119.6981 240.4296 13.14502500162906
ONEWEB-0641             
1 55805U 23029K   26194.79049487 -.00000006  00000+0 -46488-4 0  9990
2 55805  87.9192 299.6695 0002120 104.8151 255.3217 13.19726485162428
ONEWEB-0642             
1 55806U 23029L   26194.78576566 -.00007987  00000+0 -19987-1 0  9999
2 55806  87.9184 299.6807 0002452 110.0851 250.0546 13.19767052162410
ONEWEB-0643             
1 55807U 23029M   26194.70921494  .00000218  00000+0  55446-3 0  9996
2 55807  87.8961 284.4430 0002633 115.7664 244.3738 13.14502340162873
ONEWEB-0644             
1 55808U 23029N   26194.85685022  .00000054  00000+0  10377-3 0  9999
2 55808  87.9181 299.6673 0002278 107.2915 252.8467 13.19725695162425
ONEWEB-0645             
1 55809U 23029P   26194.80314354  .00000086  00000+0  18165-3 0  9990
2 55809  87.9184 299.6749 0002023 121.3788 238.7543 13.19725517162416
ONEWEB-0646             
1 55810U 23029Q   26194.82050995 -.00000007  00000+0 -49311-4 0  9995
2 55810  87.9187 299.6711 0002236 105.9276 254.2103 13.19726991162407
ONEWEB-0648             
1 55811U 23029R   26194.75361112 -.00000067  00000+0 -21557-3 0  9991
2 55811  87.8971 284.4101 0002319 123.7851 236.3500 13.14503602162883
ONEWEB-0649             
1 55812U 23029S   26194.84577720 -.00000004  00000+0 -41964-4 0  9992
2 55812  87.9184 299.6647 0002031 108.7490 251.3863 13.19726654162447
ONEWEB-0650             
1 55813U 23029T   26194.84104258  .00000012  00000+0 -15220-5 0  9990
2 55813  87.9186 299.6675 0002459 112.2061 247.9333 13.19726170162412
ONEWEB-0652             
1 55814U 23029U   26194.73458135 -.00000194  00000+0 -55651-3 0  9997
2 55814  87.8970 284.4210 0002005  95.3378 264.7981 13.14502392162856
ONEWEB-0653             
1 55815U 23029V   26194.79483904  .00000040  00000+0  72229-4 0  9995
2 55815  87.8976 284.4064 0001948  99.6842 260.4508 13.14501871162891
ONEWEB-0654             
1 55816U 23029W   26194.79008171  .00000118  00000+0  28356-3 0  9992
2 55816  87.8978 284.4033 0001852  88.6547 271.4794 13.14501548162917
